{
    "links": {
        "self": "http://www.neowsapp.com/rest/v1/neo/3763972?api_key=iIulBulltgU6a56xZRHN4H3l9WmuAYTsLGpBGhQ2"
    },
    "id": "3763972",
    "neo_reference_id": "3763972",
    "name": "(2016 WU1)",
    "designation": "2016 WU1",
    "nasa_jpl_url": "http://ssd.jpl.nasa.gov/sbdb.cgi?sstr=3763972",
    "absolute_magnitude_h": 23.6,
    "estimated_diameter": {
        "kilometers": {
            "estimated_diameter_min": 0.0506471459,
            "estimated_diameter_max": 0.1132504611
        },
        "meters": {
            "estimated_diameter_min": 50.6471458835,
            "estimated_diameter_max": 113.2504610618
        },
        "miles": {
            "estimated_diameter_min": 0.0314706677,
            "estimated_diameter_max": 0.0703705522
        },
        "feet": {
            "estimated_diameter_min": 166.1651821003,
            "estimated_diameter_max": 371.5566426699
        }
    },
    "is_potentially_hazardous_asteroid": false,
    "close_approach_data": [
        {
            "close_approach_date": "2016-11-02",
            "close_approach_date_full": "2016-Nov-02 12:28",
            "epoch_date_close_approach": 1478089680000,
            "relative_velocity": {
                "kilometers_per_second": "16.0285152704",
                "kilometers_per_hour": "57702.6549735325",
                "miles_per_hour": "35854.1858084152"
            },
            "miss_distance": {
                "astronomical": "0.1191049323",
                "lunar": "46.3318186647",
                "kilometers": "17817844.178574201",
                "miles": "11071494.9805219338"
            },
            "orbiting_body": "Earth"
        }
    ],
    "orbital_data": {
        "orbit_id": "3",
        "orbit_determination_date": "2017-04-06 08:22:03",
        "first_observation_date": "2016-11-19",
        "last_observation_date": "2016-12-01",
        "data_arc_in_days": 12,
        "observations_used": 18,
        "orbit_uncertainty": "9",
        "minimum_orbit_intersection": ".0938831",
        "jupiter_tisserand_invariant": "4.163",
        "epoch_osculation": "2457712.5",
        "eccentricity": ".4743856448216844",
        "semi_major_axis": "1.591090961989829",
        "inclination": "23.51122924328438",
        "ascending_node_longitude": "51.98138410132919",
        "orbital_period": "733.0623926812931",
        "perihelion_distance": ".8363002500163301",
        "perihelion_argument": "281.1071631113703",
        "aphelion_distance": "2.345881673963329",
        "perihelion_time": "2457641.391116749754",
        "mean_anomaly": "34.9208992654164",
        "mean_motion": ".4910905314392713",
        "equinox": "J2000",
        "orbit_class": {
            "orbit_class_type": "APO",
            "orbit_class_description": "Near-Earth asteroid orbits which cross the Earth’s orbit similar to that of 1862 Apollo",
            "orbit_class_range": "a (semi-major axis) > 1.0 AU; q (perihelion) < 1.017 AU"
        }
    },
    "is_sentry_object": false
}